{"type": "FeatureCollection", "features": [ {"type": "Feature", "properties": {"norad_id": 35116, "name": "FENGYUN 1C DEB", "group": "fengyun-1c-debris", "lat": 18.353665973991152, "lon": -133.94910417183252, "alt_km": 842.1327177423627, "timestamp": "2025-12-23T07:45:09.691665+00:00", "meta": {"OBJECT_NAME": "FENGYUN 1C DEB", "OBJECT_ID": "1999-025DKU", "EPOCH": "2025-12-10T22:26:07.135584", "MEAN_MOTION": 14.25062569, "ECCENTRICITY": 0.0059356, "INCLINATION": 98.6618, "RA_OF_ASC_NODE": 30.9255, "ARG_OF_PERICENTER": 54.5271, "MEAN_ANOMALY": 306.1428, "EPHEMERIS_TYPE": 0, "CLASSIFICATION_TYPE": "U", "NORAD_CAT_ID": 35116, "ELEMENT_SET_NO": 999, "REV_AT_EPOCH": 59934, "BSTAR": 0.0014341, "MEAN_MOTION_DOT": 3.381e-05, "MEAN_MOTION_DDOT": 0}, "tle": {"line1": "1 35116U 99025DKU 25344.93480481  .00003381  00000+0  14341-2 0  9995", "line2": "2 35116  98.6618  30.9255 0059356  54.5271 306.1428 14.25062569599346"}}, "geometry": {"type": "Point", "coordinates": [-133.94910417183252, 18.353665973991152]}}, {"type": "Feature", "properties": {"norad_id": 35121, "name": "FENGYUN 1C DEB", "group": "fengyun-1c-debris", "lat": -72.97840655728062, "lon": -111.83770938901328, "alt_km": 974.3153685171073, "timestamp": "2025-12-23T07:45:09.691675+00:00", "meta": {"OBJECT_NAME": "FENGYUN 1C DEB", "OBJECT_ID": "1999-025DKZ", "EPOCH": "2025-12-20T20:16:55.438176", "MEAN_MOTION": 14.0475576, "ECCENTRICITY": 0.01584206, "INCLINATION": 98.3005, "RA_OF_ASC_NODE": 217.4143, "ARG_OF_PERICENTER": 73.7998, "MEAN_ANOMALY": 288.0539, "EPHEMERIS_TYPE": 0, "CLASSIFICATION_TYPE": "U", "NORAD_CAT_ID": 35121, "ELEMENT_SET_NO": 999, "REV_AT_EPOCH": 61205, "BSTAR": 0.00030704724, "MEAN_MOTION_DOT": 5.13e-06, "MEAN_MOTION_DDOT": 0}, "tle": {"line1": "1 35121U 99025DKZ 25354.84508609  .00000513  00000+0  30705-3 0  9992", "line2": "2 35121  98.3005 217.4143 0158420  73.7998 288.0539 14.04755760612052"}}, "geometry": {"type": "Point", "coordinates": [-111.83770938901328, -72.97840655728062]}}, {"type": "Feature", "properties": {"norad_id": 35122, "name": "FENGYUN 1C DEB", "group": "fengyun-1c-debris", "lat": -24.49228840576474, "lon": -168.5635641178688, "alt_km": 846.3426735474468, "timestamp": "2025-12-23T07:45:09.691684+00:00", "meta": {"OBJECT_NAME": "FENGYUN 1C DEB", "OBJECT_ID": "1999-025DLA", "EPOCH": "2025-12-22T18:54:12.458880", "MEAN_MOTION": 14.14135112, "ECCENTRICITY": 0.002568, "INCLINATION": 98.6712, "RA_OF_ASC_NODE": 14.9034, "ARG_OF_PERICENTER": 129.7819, "MEAN_ANOMALY": 230.5621, "EPHEMERIS_TYPE": 0, "CLASSIFICATION_TYPE": "U", "NORAD_CAT_ID": 35122, "ELEMENT_SET_NO": 999, "REV_AT_EPOCH": 64009, "BSTAR": 0.00025313733, "MEAN_MOTION_DOT": 4.41e-06, "MEAN_MOTION_DDOT": 0}, "tle": {"line1": "1 35122U 99025DLA 25356.78764420  .00000441  00000+0  25314-3 0  9993", "line2": "2 35122  98.6712  14.9034 0025680 129.7819 230.5621 14.14135112640098"}}, "geometry": {"type": "Point", "coordinates": [-168.5635641178688, -24.49228840576474]}}, {"type": "Feature", "properties": {"norad_id": 35123, "name": "FENGYUN 1C DEB", "group": "fengyun-1c-debris", "lat": 23.408080530952894, "lon": 176.41756736593706, "alt_km": 777.4743518457326, "timestamp": "2025-12-23T07:45:09.691696+00:00", "meta": {"OBJECT_NAME": "FENGYUN 1C DEB", "OBJECT_ID": "1999-025DLB", "EPOCH": "2025-12-19T10:54:35.489088", "MEAN_MOTION": 14.2423349, "ECCENTRICITY": 0.0049602, "INCLINATION": 99.1223, "RA_OF_ASC_NODE": 176.3926, "ARG_OF_PERICENTER": 57.2022, "MEAN_ANOMALY": 303.3919, "EPHEMERIS_TYPE": 0, "CLASSIFICATION_TYPE": "U", "NORAD_CAT_ID": 35123, "ELEMENT_SET_NO": 999, "REV_AT_EPOCH": 61169, "BSTAR": 0.00041167, "MEAN_MOTION_DOT": 9.14e-06, "MEAN_MOTION_DDOT": 0}, "tle": {"line1": "1 35123U 99025DLB 25353.45457742  .00000914  00000+0  41167-3 0  9990", "line2": "2 35123  99.1223 176.3926 0049602  57.2022 303.3919 14.24233490611698"}}, "geometry": {"type": "Point", "coordinates": [176.41756736593706, 23.408080530952894]}}, {"type": "Feature", "properties": {"norad_id": 35125, "name": "FENGYUN 1C DEB", "group": "fengyun-1c-debris", "lat": 81.14089415817666, "lon": -60.13223227743131, "alt_km": 810.5921122207092, "timestamp": "2025-12-23T07:45:09.691706+00:00", "meta": {"OBJECT_NAME": "FENGYUN 1C DEB", "OBJECT_ID": "1999-025DLD", "EPOCH": "2025-12-21T06:45:20.871648", "MEAN_MOTION": 14.33188134, "ECCENTRICITY": 0.0051785, "INCLINATION": 98.2157, "RA_OF_ASC_NODE": 5.8912, "ARG_OF_PERICENTER": 268.5763, "MEAN_ANOMALY": 90.949, "EPHEMERIS_TYPE": 0, "CLASSIFICATION_TYPE": "U", "NORAD_CAT_ID": 35125, "ELEMENT_SET_NO": 999, "REV_AT_EPOCH": 31404, "BSTAR": 0.00096643, "MEAN_MOTION_DOT": 2.654e-05, "MEAN_MOTION_DDOT": 0}, "tle": {"line1": "1 35125U 99025DLD 25355.28149157  .00002654  00000+0  96643-3 0  9995", "line2": "2 35125  98.2157   5.8912 0051785 268.5763  90.9490 14.33188134314047"}}, "geometry": {"type": "Point", "coordinates": [-60.13223227743131, 81.14089415817666]}}, {"type": "Feature", "properties": {"norad_id": 35130, "name": "FENGYUN 1C DEB", "group": "fengyun-1c-debris", "lat": 73.78970895072555, "lon": 56.77189764197141, "alt_km": 549.8260347963142, "timestamp": "2025-12-23T07:45:09.691716+00:00", "meta": {"OBJECT_NAME": "FENGYUN 1C DEB", "OBJECT_ID": "1999-025DLJ", "EPOCH": "2025-12-21T20:07:04.434528", "MEAN_MOTION": 15.01765435, "ECCENTRICITY": 0.00121415, "INCLINATION": 99.0319, "RA_OF_ASC_NODE": 201.8749, "ARG_OF_PERICENTER": 44.6238, "MEAN_ANOMALY": 315.5957, "EPHEMERIS_TYPE": 0, "CLASSIFICATION_TYPE": "U", "NORAD_CAT_ID": 35130, "ELEMENT_SET_NO": 999, "REV_AT_EPOCH": 65050, "BSTAR": 0.006798984, "MEAN_MOTION_DOT": 0.00089702, "MEAN_MOTION_DDOT": 0}, "tle": {"line1": "1 35130U 99025DLJ 25355.83824577  .00089702  00000+0  67990-2 0  9999", "line2": "2 35130  99.0319 201.8749 0012141  44.6238 315.5957 15.01765435650500"}}, "geometry": {"type": "Point", "coordinates": [56.77189764197141, 73.78970895072555]}}, {"type": "Feature", "properties": {"norad_id": 35135, "name": "FENGYUN 1C DEB", "group": "fengyun-1c-debris", "lat": 56.6003423583971, "lon": -160.95663556143467, "alt_km": 849.1092078228448, "timestamp": "2025-12-23T07:45:09.691726+00:00", "meta": {"OBJECT_NAME": "FENGYUN 1C DEB", "OBJECT_ID": "1999-025DLP", "EPOCH": "2025-12-22T05:51:04.283712", "MEAN_MOTION": 14.22559822, "ECCENTRICITY": 0.00808612, "INCLINATION": 98.5643, "RA_OF_ASC_NODE": 4.7831, "ARG_OF_PERICENTER": 256.4236, "MEAN_ANOMALY": 102.7926, "EPHEMERIS_TYPE": 0, "CLASSIFICATION_TYPE": "U", "NORAD_CAT_ID": 35135, "ELEMENT_SET_NO": 999, "REV_AT_EPOCH": 87959, "BSTAR": 0.00044303491, "MEAN_MOTION_DOT": 9.8e-06, "MEAN_MOTION_DDOT": 0}, "tle": {"line1": "1 35135U 99025DLP 25356.24379958  .00000980  00000+0  44303-3 0  9993", "line2": "2 35135  98.5643   4.7831 0080861 256.4236 102.7926 14.22559822879593"}}, "geometry": {"type": "Point", "coordinates": [-160.95663556143467, 56.6003423583971]}}, {"type": "Feature", "properties": {"norad_id": 35139, "name": "FENGYUN 1C DEB", "group": "fengyun-1c-debris", "lat": 19.288040709934105, "lon": -174.72375287117313, "alt_km": 835.1007536367406, "timestamp": "2025-12-23T07:45:09.691738+00:00", "meta": {"OBJECT_NAME": "FENGYUN 1C DEB", "OBJECT_ID": "1999-025DLT", "EPOCH": "2025-12-17T05:40:19.572096", "MEAN_MOTION": 14.2110105, "ECCENTRICITY": 0.0067913, "INCLINATION": 98.584, "RA_OF_ASC_NODE": 356.3312, "ARG_OF_PERICENTER": 284.2558, "MEAN_ANOMALY": 75.1083, "EPHEMERIS_TYPE": 0, "CLASSIFICATION_TYPE": "U", "NORAD_CAT_ID": 35139, "ELEMENT_SET_NO": 999, "REV_AT_EPOCH": 64217, "BSTAR": 0.0003366611, "MEAN_MOTION_DOT": 7.05e-06, "MEAN_MOTION_DDOT": 0}, "tle": {"line1": "1 35139U 99025DLT 25351.23633764  .00000705  00000+0  33666-3 0  9994", "line2": "2 35139  98.5840 356.3312 0067913 284.2558  75.1083 14.21101050642179"}}, "geometry": {"type": "Point", "coordinates": [-174.72375287117313, 19.288040709934105]}}, {"type": "Feature", "properties": {"norad_id": 35140, "name": "FENGYUN 1C DEB", "group": "fengyun-1c-debris", "lat": -73.74886848438895, "lon": 127.61041479386716, "alt_km": 664.9484739060426, "timestamp": "2025-12-23T07:45:09.691748+00:00", "meta": {"OBJECT_NAME": "FENGYUN 1C DEB", "OBJECT_ID": "1999-025DLU", "EPOCH": "2025-12-21T05:32:01.237632", "MEAN_MOTION": 14.21359714, "ECCENTRICITY": 0.0290236, "INCLINATION": 98.446, "RA_OF_ASC_NODE": 336.251, "ARG_OF_PERICENTER": 301.8774, "MEAN_ANOMALY": 55.4461, "EPHEMERIS_TYPE": 0, "CLASSIFICATION_TYPE": "U", "NORAD_CAT_ID": 35140, "ELEMENT_SET_NO": 999, "REV_AT_EPOCH": 87399, "BSTAR": 0.00017323, "MEAN_MOTION_DOT": 5.27e-06, "MEAN_MOTION_DDOT": 0}, "tle": {"line1": "1 35140U 99025DLU 25355.23056988  .00000527  00000+0  17323-3 0  9991", "line2": "2 35140  98.4460 336.2510 0290236 301.8774  55.4461 14.21359714873996"}}, "geometry": {"type": "Point", "coordinates": [127.61041479386716, -73.74886848438895]}}, {"type": "Feature", "properties": {"norad_id": 35142, "name": "FENGYUN 1C DEB", "group": "fengyun-1c-debris", "lat": 78.46018894980445, "lon": -139.53100447325912, "alt_km": 915.9661175507044, "timestamp": "2025-12-23T07:45:09.691760+00:00", "meta": {"OBJECT_NAME": "FENGYUN 1C DEB", "OBJECT_ID": "1999-025DLW", "EPOCH": "2025-12-20T05:20:32.282304", "MEAN_MOTION": 13.90510697, "ECCENTRICITY": 0.0108018, "INCLINATION": 99.045, "RA_OF_ASC_NODE": 346.1776, "ARG_OF_PERICENTER": 193.6581, "MEAN_ANOMALY": 232.9005, "EPHEMERIS_TYPE": 0, "CLASSIFICATION_TYPE": "U", "NORAD_CAT_ID": 35142, "ELEMENT_SET_NO": 999, "REV_AT_EPOCH": 85793, "BSTAR": 0.00017457, "MEAN_MOTION_DOT": 1.85e-06, "MEAN_MOTION_DDOT": 0}, "tle": {"line1": "1 35142U 99025DLW 25354.22259586  .00000185  00000+0  17457-3 0  9998", "line2": "2 35142  99.0450 346.1776 0108018 193.6581 232.9005 13.90510697857933"}}, "geometry": {"type": "Point", "coordinates": [-139.53100447325912, 78.46018894980445]}}]}